{
  "type": "FeatureCollection",
  "features": [
    {
      "type": "Feature",
      "properties": {
        "norad_id": 41581,
        "name": "INTELSAT 31 (IS-31)",
        "group": "intelsat",
        "lat": 0.03183155945080948,
        "lon": 35.13470271787056,
        "alt_km": 35795.45141534437,
        "timestamp": "2025-12-04T03:47:54.221847+00:00",
        "meta_object_name": "INTELSAT 31 (IS-31)",
        "meta_object_id": "2016-035A",
        "meta_epoch": "2025-12-03T13:18:15.813216",
        "meta_mean_motion": 1.0027005,
        "meta_eccentricity": 0.0002099,
        "meta_inclination": 0.0165,
        "meta_ra_of_asc_node": 271.6332,
        "meta_arg_of_pericenter": 305.8436,
        "meta_mean_anomaly": 319.6781,
        "meta_ephemeris_type": 0,
        "meta_classification_type": "U",
        "meta_norad_cat_id": 41581,
        "meta_element_set_no": 999,
        "meta_rev_at_epoch": 3472,
        "meta_bstar": 0,
        "meta_mean_motion_dot": -1.33e-06,
        "meta_mean_motion_ddot": 0,
        "tle_line1": "1 41581U 16035A   25337.55434969 -.00000133  00000+0  00000+0 0  9995",
        "tle_line2": "2 41581   0.0165 271.6332 0002099 305.8436 319.6781  1.00270050 34722"
      },
      "geometry": {
        "type": "Point",
        "coordinates": [
          35.13470271787056,
          0.03183155945080948
        ]
      }
    },
    {
      "type": "Feature",
      "properties": {
        "norad_id": 41747,
        "name": "INTELSAT 36 (IS-36)",
        "group": "intelsat",
        "lat": -0.019064847065862242,
        "lon": -161.32501843500864,
        "alt_km": 35789.939154831256,
        "timestamp": "2025-12-04T03:47:54.221859+00:00",
        "meta_object_name": "INTELSAT 36 (IS-36)",
        "meta_object_id": "2016-053A",
        "meta_epoch": "2025-12-03T20:09:58.164192",
        "meta_mean_motion": 1.00268515,
        "meta_eccentricity": 0.0001517,
        "meta_inclination": 0.0123,
        "meta_ra_of_asc_node": 0.9905,
        "meta_arg_of_pericenter": 315.4282,
        "meta_mean_anomaly": 127.5011,
        "meta_ephemeris_type": 0,
        "meta_classification_type": "U",
        "meta_norad_cat_id": 41747,
        "meta_element_set_no": 999,
        "meta_rev_at_epoch": 3399,
        "meta_bstar": 0,
        "meta_mean_motion_dot": -7e-08,
        "meta_mean_motion_ddot": 0,
        "tle_line1": "1 41747U 16053A   25337.84025653 -.00000007  00000+0  00000+0 0  9997",
        "tle_line2": "2 41747   0.0123   0.9905 0001517 315.4282 127.5011  1.00268515 33992"
      },
      "geometry": {
        "type": "Point",
        "coordinates": [
          -161.32501843500864,
          -0.019064847065862242
        ]
      }
    },
    {
      "type": "Feature",
      "properties": {
        "norad_id": 41945,
        "name": "INTELSAT 32E (IS-32E)",
        "group": "intelsat",
        "lat": 0.02270862924051507,
        "lon": 87.01607947107473,
        "alt_km": 35786.891060145645,
        "timestamp": "2025-12-04T03:47:54.221870+00:00",
        "meta_object_name": "INTELSAT 32E (IS-32E)",
        "meta_object_id": "2017-007B",
        "meta_epoch": "2025-12-03T08:24:51.420096",
        "meta_mean_motion": 1.00269596,
        "meta_eccentricity": 1.84e-05,
        "meta_inclination": 0.029,
        "meta_ra_of_asc_node": 67.4316,
        "meta_arg_of_pericenter": 280.9577,
        "meta_mean_anomaly": 167.0963,
        "meta_ephemeris_type": 0,
        "meta_classification_type": "U",
        "meta_norad_cat_id": 41945,
        "meta_element_set_no": 999,
        "meta_rev_at_epoch": 3226,
        "meta_bstar": 0,
        "meta_mean_motion_dot": -2.5e-06,
        "meta_mean_motion_ddot": 0,
        "tle_line1": "1 41945U 17007B   25337.35059514 -.00000250  00000+0  00000+0 0  9996",
        "tle_line2": "2 41945   0.0290  67.4316 0000184 280.9577 167.0963  1.00269596 32267"
      },
      "geometry": {
        "type": "Point",
        "coordinates": [
          87.01607947107473,
          0.02270862924051507
        ]
      }
    },
    {
      "type": "Feature",
      "properties": {
        "norad_id": 42818,
        "name": "INTELSAT 35E (IS-35E)",
        "group": "intelsat",
        "lat": 0.025642305514258525,
        "lon": 95.70146870771764,
        "alt_km": 35796.179960564405,
        "timestamp": "2025-12-04T03:47:54.221882+00:00",
        "meta_object_name": "INTELSAT 35E (IS-35E)",
        "meta_object_id": "2017-041A",
        "meta_epoch": "2025-12-03T17:00:57.508416",
        "meta_mean_motion": 1.00270769,
        "meta_eccentricity": 0.0002427,
        "meta_inclination": 0.0092,
        "meta_ra_of_asc_node": 324.1753,
        "meta_arg_of_pericenter": 293.4784,
        "meta_mean_anomaly": 35.9019,
        "meta_ephemeris_type": 0,
        "meta_classification_type": "U",
        "meta_norad_cat_id": 42818,
        "meta_element_set_no": 999,
        "meta_rev_at_epoch": 3085,
        "meta_bstar": 0,
        "meta_mean_motion_dot": -2.2e-06,
        "meta_mean_motion_ddot": 0,
        "tle_line1": "1 42818U 17041A   25337.70899894 -.00000220  00000+0  00000+0 0  9993",
        "tle_line2": "2 42818   0.0092 324.1753 0002427 293.4784  35.9019  1.00270769 30858"
      },
      "geometry": {
        "type": "Point",
        "coordinates": [
          95.70146870771764,
          0.025642305514258525
        ]
      }
    },
    {
      "type": "Feature",
      "properties": {
        "norad_id": 42950,
        "name": "INTELSAT 37E (IS-37E)",
        "group": "intelsat",
        "lat": 0.01921484621105986,
        "lon": 112.16737582837852,
        "alt_km": 35796.739550163606,
        "timestamp": "2025-12-04T03:47:54.221893+00:00",
        "meta_object_name": "INTELSAT 37E (IS-37E)",
        "meta_object_id": "2017-059A",
        "meta_epoch": "2025-12-03T17:05:42.052992",
        "meta_mean_motion": 1.0027079,
        "meta_eccentricity": 0.000345,
        "meta_inclination": 0.0169,
        "meta_ra_of_asc_node": 317.8886,
        "meta_arg_of_pericenter": 289.3814,
        "meta_mean_anomaly": 63.9596,
        "meta_ephemeris_type": 0,
        "meta_classification_type": "U",
        "meta_norad_cat_id": 42950,
        "meta_element_set_no": 999,
        "meta_rev_at_epoch": 3010,
        "meta_bstar": 0,
        "meta_mean_motion_dot": -1.23e-06,
        "meta_mean_motion_ddot": 0,
        "tle_line1": "1 42950U 17059A   25337.71229228 -.00000123  00000+0  00000+0 0  9990",
        "tle_line2": "2 42950   0.0169 317.8886 0003450 289.3814  63.9596  1.00270790 30104"
      },
      "geometry": {
        "type": "Point",
        "coordinates": [
          112.16737582837852,
          0.01921484621105986
        ]
      }
    },
    {
      "type": "Feature",
      "properties": {
        "norad_id": 43632,
        "name": "AZERSPACE 2 (IS-38)",
        "group": "intelsat",
        "lat": -0.01289691715944088,
        "lon": 175.2825618962795,
        "alt_km": 35785.26534530969,
        "timestamp": "2025-12-04T03:47:54.221905+00:00",
        "meta_object_name": "AZERSPACE 2 (IS-38)",
        "meta_object_id": "2018-074A",
        "meta_epoch": "2025-12-03T17:23:40.331040",
        "meta_mean_motion": 1.0027174,
        "meta_eccentricity": 0.0001742,
        "meta_inclination": 0.0176,
        "meta_ra_of_asc_node": 347.6047,
        "meta_arg_of_pericenter": 271.7152,
        "meta_mean_anomaly": 119.5202,
        "meta_ephemeris_type": 0,
        "meta_classification_type": "U",
        "meta_norad_cat_id": 43632,
        "meta_element_set_no": 999,
        "meta_rev_at_epoch": 2648,
        "meta_bstar": 0,
        "meta_mean_motion_dot": 1.54e-06,
        "meta_mean_motion_ddot": 0,
        "tle_line1": "1 43632U 18074A   25337.72477235  .00000154  00000+0  00000+0 0  9993",
        "tle_line2": "2 43632   0.0176 347.6047 0001742 271.7152 119.5202  1.00271740 26486"
      },
      "geometry": {
        "type": "Point",
        "coordinates": [
          175.2825618962795,
          -0.01289691715944088
        ]
      }
    },
    {
      "type": "Feature",
      "properties": {
        "norad_id": 43633,
        "name": "HORIZONS-3E",
        "group": "intelsat",
        "lat": 0.00594885379491147,
        "lon": -60.79540207873443,
        "alt_km": 35782.43057668084,
        "timestamp": "2025-12-04T03:47:54.221916+00:00",
        "meta_object_name": "HORIZONS-3E",
        "meta_object_id": "2018-074B",
        "meta_epoch": "2025-12-02T09:32:38.562720",
        "meta_mean_motion": 1.00268601,
        "meta_eccentricity": 0.00010808,
        "meta_inclination": 0.0303,
        "meta_ra_of_asc_node": 208.778,
        "meta_arg_of_pericenter": 80.6678,
        "meta_mean_anomaly": 94.2479,
        "meta_ephemeris_type": 0,
        "meta_classification_type": "U",
        "meta_norad_cat_id": 43633,
        "meta_element_set_no": 999,
        "meta_rev_at_epoch": 2636,
        "meta_bstar": 0,
        "meta_mean_motion_dot": -1e-07,
        "meta_mean_motion_ddot": 0,
        "tle_line1": "1 43633U 18074B   25336.39766855 -.00000010  00000+0  00000+0 0  9997",
        "tle_line2": "2 43633   0.0303 208.7780 0001080  80.6678  94.2479  1.00268601 26369"
      },
      "geometry": {
        "type": "Point",
        "coordinates": [
          -60.79540207873443,
          0.00594885379491147
        ]
      }
    }
  ]
}